CCSDS_OMM_VERS,COMMENT,CREATION_DATE,ORIGINATOR,OBJECT_NAME,OBJECT_ID,CENTER_NAME,REF_FRAME,TIME_SYSTEM,MEAN_ELEMENT_THEORY,EPOCH,MEAN_MOTION,ECCENTRICITY,INCLINATION,RA_OF_ASC_NODE,ARG_OF_PERICENTER,MEAN_ANOMALY,EPHEMERIS_TYPE,CLASSIFICATION_TYPE,NORAD_CAT_ID,ELEMENT_SET_NO,REV_AT_EPOCH,BSTAR,MEAN_MOTION_DOT,MEAN_MOTION_DDOT,SEMIMAJOR_AXIS,PERIOD,APOAPSIS,PERIAPSIS,OBJECT_TYPE,RCS_SIZE,COUNTRY_CODE,LAUNCH_DATE,SITE,DECAY_DATE,FILE,GP_ID,TLE_LINE0,TLE_LINE1,TLE_LINE2
"2.0","GENERATED VIA SPACE-TRACK.ORG API","2014-01-20T14:28:35","18 SPCS","PAYLOAD A","2013-037A","EARTH","TEME","UTC","SGP4","2014-01-20T11:12:00.504863","14.67984548","0.00096120","98.0466","40.1780","135.1744","225.0237","0","U","39208","999","2707","0.00001366300000","0.00000030","0.0000000000000","7045.651","98.093","674.288","660.743","PAYLOAD","LARGE","PRC","2013-07-19","TSC","","1617702","94943413","0 PAYLOAD A","1 39208U 13037A   14020.46667251  .00000030  00000-0  13663-4 0  9996","2 39208 098.0466 040.1780 0009612 135.1744 225.0237 14.67984548 27073"
"2.0","GENERATED VIA SPACE-TRACK.ORG API","2014-01-20T15:45:01","18 SPCS","PAYLOAD C","2013-037C","EARTH","TEME","UTC","SGP4","2014-01-20T12:17:53.996064","14.95261511","0.00341290","97.6866","39.9269","142.0217","218.3436","0","U","39210","999","2750","0.00003081700000","0.00000285","0.0000000000000","6959.702","96.304","605.320","557.814","PAYLOAD","LARGE","PRC","2013-07-19","TSC","","1617781","94945339","0 PAYLOAD C","1 39210U 13037C   14020.51243051  .00000285  00000-0  30817-4 0  9995","2 39210 097.6866 039.9269 0034129 142.0217 218.3436 14.95261511 27509"
"2.0","GENERATED VIA SPACE-TRACK.ORG API","2014-01-20T15:44:13","18 SPCS","PAYLOAD B","2013-037B","EARTH","TEME","UTC","SGP4","2014-01-20T13:33:03.396960","14.67357739","0.00058250","98.0461","40.0459","124.5989","235.5773","0","U","39209","999","2706","0.00007125600000","0.00000355","0.0000000000000","7047.657","98.135","673.627","665.417","PAYLOAD","LARGE","PRC","2013-07-19","TSC","","1617780","94945313","0 PAYLOAD B","1 39209U 13037B   14020.56462265  .00000355  00000-0  71256-4 0  9998","2 39209 098.0461 040.0459 0005825 124.5989 235.5773 14.67357739 27062"
"2.0","GENERATED VIA SPACE-TRACK.ORG API","2014-01-20T22:25:42","18 SPCS","PAYLOAD A","2013-037A","EARTH","TEME","UTC","SGP4","2014-01-20T19:22:46.300512","14.67985000","0.00096330","98.0467","40.5131","134.1280","226.0750","0","U","39208","999","2712","0.00001979600000","0.00000065","0.0000000000000","7045.649","98.093","674.301","660.727","PAYLOAD","LARGE","PRC","2013-07-19","TSC","","1617883","94946238","0 PAYLOAD A","1 39208U 13037A   14020.80748033  .00000065  00000-0  19796-4 0  9993","2 39208 098.0467 040.5131 0009633 134.1280 226.0750 14.67985000 27126"
"2.0","GENERATED VIA SPACE-TRACK.ORG API","2014-01-20T23:32:25","18 SPCS","PAYLOAD C","2013-037C","EARTH","TEME","UTC","SGP4","2014-01-20T20:19:43.334975","14.95261210","0.00341790","97.6863","40.2544","140.9704","219.4003","0","U","39210","999","2755","0.00002419400000","0.00000211","0.0000000000000","6959.703","96.304","605.356","557.780","PAYLOAD","LARGE","PRC","2013-07-19","TSC","","1617966","94948196","0 PAYLOAD C","1 39210U 13037C   14020.84702934  .00000211  00000-0  24194-4 0  9991","2 39210 097.6863 040.2544 0034179 140.9704 219.4003 14.95261210 27553"
"2.0","GENERATED VIA SPACE-TRACK.ORG API","2014-01-20T23:31:32","18 SPCS","PAYLOAD B","2013-037B","EARTH","TEME","UTC","SGP4","2014-01-20T21:44:01.762944","14.67358147","0.00058030","98.0459","40.3807","123.4869","236.6906","0","U","39209","999","2711","0.00007814500000","0.00000394","0.0000000000000","7047.656","98.135","673.610","665.431","PAYLOAD","LARGE","PRC","2013-07-19","TSC","","1617964","94948157","0 PAYLOAD B","1 39209U 13037B   14020.90557596  .00000394  00000-0  78145-4 0  9995","2 39209 098.0459 040.3807 0005803 123.4869 236.6906 14.67358147 27110"
"2.0","GENERATED VIA SPACE-TRACK.ORG API","2014-01-21T06:25:38","18 SPCS","PAYLOAD A","2013-037A","EARTH","TEME","UTC","SGP4","2014-01-21T03:33:31.924224","14.67986249","0.00096650","98.0465","40.8477","133.5806","226.6227","0","U","39208","999","2717","0.00004254500000","0.00000196","0.0000000000000","7045.645","98.093","674.320","660.700","PAYLOAD","LARGE","PRC","2013-07-19","TSC","","1618072","94948950","0 PAYLOAD A","1 39208U 13037A   14021.14828616  .00000196  00000-0  42545-4 0  9990","2 39208 098.0465 040.8477 0009665 133.5806 226.6227 14.67986249 27178"
"2.0","GENERATED VIA SPACE-TRACK.ORG API","2014-01-21T07:28:48","18 SPCS","PAYLOAD B","2013-037B","EARTH","TEME","UTC","SGP4","2014-01-21T04:16:48.391103","14.67358617","0.00058000","98.0460","40.6484","122.7908","237.3859","0","U","39209","999","2715","0.00008342600000","0.00000423","0.0000000000000","7047.654","98.135","673.607","665.431","PAYLOAD","LARGE","PRC","2013-07-19","TSC","","1618146","94950770","0 PAYLOAD B","1 39209U 13037B   14021.17833786  .00000423  00000-0  83426-4 0  9994","2 39209 098.0460 040.6484 0005800 122.7908 237.3859 14.67358617 27150"
"2.0","GENERATED VIA SPACE-TRACK.ORG API","2014-01-21T07:30:46","18 SPCS","PAYLOAD C","2013-037C","EARTH","TEME","UTC","SGP4","2014-01-21T04:21:32.600448","14.95261953","0.00341490","97.6862","40.5824","139.8152","220.5611","0","U","39210","999","2760","0.00003149700000","0.00000292","0.0000000000000","6959.701","96.304","605.332","557.799","PAYLOAD","LARGE","PRC","2013-07-19","TSC","","1618148","94950815","0 PAYLOAD C","1 39210U 13037C   14021.18162732  .00000292  00000-0  31497-4 0  9998","2 39210 097.6862 040.5824 0034149 139.8152 220.5611 14.95261953 27605"
"2.0","GENERATED VIA SPACE-TRACK.ORG API","2014-01-21T14:31:08","18 SPCS","PAYLOAD A","2013-037A","EARTH","TEME","UTC","SGP4","2014-01-21T10:06:08.477280","14.67986457","0.00096960","98.0464","41.1158","132.8272","227.3749","0","U","39208","999","2721","0.00004366600000","0.00000202","0.0000000000000","7045.644","98.093","674.341","660.678","PAYLOAD","LARGE","PRC","2013-07-19","TSC","","1618187","94951553","0 PAYLOAD A","1 39208U 13037A   14021.42093145  .00000202  00000-0  43666-4 0  9995","2 39208 098.0464 041.1158 0009696 132.8272 227.3749 14.67986457 27213"
"2.0","GENERATED VIA SPACE-TRACK.ORG API","2014-01-21T15:48:08","18 SPCS","PAYLOAD C","2013-037C","EARTH","TEME","UTC","SGP4","2014-01-21T12:23:21.840863","14.95262927","0.00341460","97.6863","40.9107","138.7008","221.6816","0","U","39210","999","2765","0.00004106800000","0.00000399","0.0000000000000","6959.698","96.304","605.327","557.798","PAYLOAD","LARGE","PRC","2013-07-19","TSC","","1618288","94953988","0 PAYLOAD C","1 39210U 13037C   14021.51622501  .00000399  00000-0  41068-4 0  9993","2 39210 097.6863 040.9107 0034146 138.7008 221.6816 14.95262927 27655"
"2.0","GENERATED VIA SPACE-TRACK.ORG API","2014-01-21T15:47:02","18 SPCS","PAYLOAD B","2013-037B","EARTH","TEME","UTC","SGP4","2014-01-21T12:27:46.727711","14.67358802","0.00058330","98.0461","40.9834","121.5929","238.5848","0","U","39209","999","2720","0.00007857900000","0.00000396","0.0000000000000","7047.653","98.135","673.629","665.408","PAYLOAD","LARGE","PRC","2013-07-19","TSC","","1618286","94953948","0 PAYLOAD B","1 39209U 13037B   14021.51929083  .00000396  00000-0  78579-4 0  9990","2 39209 098.0461 040.9834 0005833 121.5929 238.5848 14.67358802 27202"
"2.0","GENERATED VIA SPACE-TRACK.ORG API","2014-01-21T22:22:43","18 SPCS","PAYLOAD A","2013-037A","EARTH","TEME","UTC","SGP4","2014-01-21T18:16:54.278112","14.67986333","0.00097970","98.0464","41.4512","131.7697","228.4340","0","U","39208","999","2726","0.00004179300000","0.00000191","0.0000000000000","7045.645","98.093","674.412","660.607","PAYLOAD","LARGE","PRC","2013-07-19","TSC","","1618413","94954897","0 PAYLOAD A","1 39208U 13037A   14021.76173933  .00000191  00000-0  41793-4 0  9992","2 39208 098.0464 041.4512 0009797 131.7697 228.4340 14.67986333 27268"
"2.0","GENERATED VIA SPACE-TRACK.ORG API","2014-01-21T23:24:01","18 SPCS","PAYLOAD C","2013-037C","EARTH","TEME","UTC","SGP4","2014-01-21T20:25:11.138303","14.95262983","0.00341940","97.6861","41.2388","137.6067","222.7820","0","U","39210","999","2770","0.00003783000000","0.00000363","0.0000000000000","6959.698","96.304","605.361","557.765","PAYLOAD","LARGE","PRC","2013-07-19","TSC","","1618485","94956588","0 PAYLOAD C","1 39210U 13037C   14021.85082336  .00000363  00000-0  37830-4 0  9999","2 39210 097.6861 041.2388 0034194 137.6067 222.7820 14.95262983 27709"
"2.0","GENERATED VIA SPACE-TRACK.ORG API","2014-01-21T23:22:20","18 SPCS","PAYLOAD B","2013-037B","EARTH","TEME","UTC","SGP4","2014-01-21T20:38:45.140352","14.67358285","0.00058960","98.0458","41.3180","120.9929","239.1865","0","U","39209","999","2725","0.00005964400000","0.00000289","0.0000000000000","7047.655","98.135","673.675","665.365","PAYLOAD","LARGE","PRC","2013-07-19","TSC","","1618484","94956550","0 PAYLOAD B","1 39209U 13037B   14021.86024468  .00000289  00000-0  59644-4 0  9994","2 39209 098.0458 041.3180 0005896 120.9929 239.1865 14.67358285 27255"
"2.0","GENERATED VIA SPACE-TRACK.ORG API","2014-01-22T06:30:21","18 SPCS","PAYLOAD A","2013-037A","EARTH","TEME","UTC","SGP4","2014-01-22T02:27:39.996864","14.67987044","0.00098600","98.0463","41.7858","130.7886","229.4183","0","U","39208","999","2731","0.00005340900000","0.00000258","0.0000000000000","7045.643","98.093","674.455","660.561","PAYLOAD","LARGE","PRC","2013-07-19","TSC","","1618602","94957447","0 PAYLOAD A","1 39208U 13037A   14022.10254626  .00000258  00000-0  53409-4 0  9991","2 39208 098.0463 041.7858 0009860 130.7886 229.4183 14.67987044 27315"
